HAWK-11A                
1 62382U 24247F   26068.51231358  .00009457  00000+0  34106-3 0  9991
2 62382  44.9941 114.3328 0005466 327.3713  32.6832 15.28849427 67741
STARLINK-33707          
1 63401U 25065C   26067.52696120  .00041503  00000+0  15091-2 0  9994
2 63401  43.0003 113.5212 0002011 291.8895  68.1743 15.27581718 52660
